{
  "norad_id": 48776,
  "name": "ONEWEB-0244",
  "history": [
    {
      "epoch": "2026-04-13T04:44:26.245536Z",
      "apogee_km": 1203.2428473852524,
      "perigee_km": 1200.3050255045055,
      "latitude_deg": 2.8396232328612905e-05,
      "longitude_deg": -0.3613150158139333,
      "height_km": 1204.7776496448075,
      "semi_major_axis_km": 7579.910936444879,
      "eccentricity": 0.00019379,
      "inclination_deg": 87.8946,
      "raan_deg": 272.1398,
      "arg_perigee_deg": 94.3582,
      "mean_anomaly_deg": 265.777,
      "mean_motion_rev_day": 13.15547725
    },
    {
      "epoch": "2026-04-14T20:53:56.045184Z",
      "apogee_km": 1203.240811701905,
      "perigee_km": 1200.3058704178466,
      "latitude_deg": 3.987355572908952e-05,
      "longitude_deg": 115.28078012942137,
      "height_km": 1204.767408227298,
      "semi_major_axis_km": 7579.9103410598755,
      "eccentricity": 0.0001936,
      "inclination_deg": 87.8947,
      "raan_deg": 271.8053,
      "arg_perigee_deg": 93.9849,
      "mean_anomaly_deg": 266.1503,
      "mean_motion_rev_day": 13.1554788
    },
    {
      "epoch": "2026-04-15T20:37:43.694400Z",
      "apogee_km": 1203.226317665949,
      "perigee_km": 1200.320180076531,
      "latitude_deg": -4.7391904564658245e-05,
      "longitude_deg": 118.16028798493342,
      "height_km": 1204.7623814885228,
      "semi_major_axis_km": 7579.91024887124,
      "eccentricity": 0.0001917,
      "inclination_deg": 87.8951,
      "raan_deg": 271.6079,
      "arg_perigee_deg": 93.8275,
      "mean_anomaly_deg": 266.3074,
      "mean_motion_rev_day": 13.15547904
    },
    {
      "epoch": "2026-04-16T16:42:28.591200Z",
      "apogee_km": 1203.2277898064776,
      "perigee_km": 1200.3155888880292,
      "latitude_deg": 7.0693588170432694e-06,
      "longitude_deg": 175.981500677858,
      "height_km": 1204.7609619574084,
      "semi_major_axis_km": 7579.908689347253,
      "eccentricity": 0.0001921,
      "inclination_deg": 87.8952,
      "raan_deg": 271.4408,
      "arg_perigee_deg": 93.8256,
      "mean_anomaly_deg": 266.3094,
      "mean_motion_rev_day": 13.1554831
    },
    {
      "epoch": "2026-04-17T21:54:50.362560Z",
      "apogee_km": 1203.2284206063205,
      "perigee_km": 1200.3157647383705,
      "latitude_deg": 1.0542600322881778e-05,
      "longitude_deg": 96.448238681706,
      "height_km": 1204.7681331560705,
      "semi_major_axis_km": 7579.909092672345,
      "eccentricity": 0.00019213,
      "inclination_deg": 87.8954,
      "raan_deg": 271.1977,
      "arg_perigee_deg": 94.0918,
      "mean_anomaly_deg": 266.0432,
      "mean_motion_rev_day": 13.15548205
    },
    {
      "epoch": "2026-04-18T17:59:35.358720Z",
      "apogee_km": 1203.2097702236488,
      "perigee_km": 1200.3400155809968,
      "latitude_deg": 1.6967274344418973e-05,
      "longitude_deg": 154.2692329814549,
      "height_km": 1204.751591762705,
      "semi_major_axis_km": 7579.9118929023225,
      "eccentricity": 0.0001893,
      "inclination_deg": 87.8954,
      "raan_deg": 271.0308,
      "arg_perigee_deg": 93.3774,
      "mean_anomaly_deg": 266.7573,
      "mean_motion_rev_day": 13.15547476
    },
    {
      "epoch": "2026-04-19T19:32:54.250656Z",
      "apogee_km": 1203.2123560803038,
      "perigee_km": 1200.3319905944354,
      "latitude_deg": -6.129151789691887e-05,
      "longitude_deg": 129.6781959609538,
      "height_km": 1204.7517592125037,
      "semi_major_axis_km": 7579.90917333737,
      "eccentricity": 0.00019,
      "inclination_deg": 87.8952,
      "raan_deg": 270.818,
      "arg_perigee_deg": 93.48,
      "mean_anomaly_deg": 266.6547,
      "mean_motion_rev_day": 13.15548184
    },
    {
      "epoch": "2026-04-20T10:09:05.121216Z",
      "apogee_km": 1203.2215943464216,
      "perigee_km": 1200.325310562539,
      "latitude_deg": 2.0690951299508236e-05,
      "longitude_deg": -90.0883209145241,
      "height_km": 1204.7552958122064,
      "semi_major_axis_km": 7579.91045245448,
      "eccentricity": 0.00019105,
      "inclination_deg": 87.8951,
      "raan_deg": 270.6965,
      "arg_perigee_deg": 93.5516,
      "mean_anomaly_deg": 266.5833,
      "mean_motion_rev_day": 13.15547851
    },
    {
      "epoch": "2026-04-21T20:50:00.737376Z",
      "apogee_km": 1203.2235580305505,
      "perigee_km": 1200.3189371900671,
      "latitude_deg": -3.3351604249176465e-05,
      "longitude_deg": 107.96689568465207,
      "height_km": 1204.7629176929865,
      "semi_major_axis_km": 7579.9082476103085,
      "eccentricity": 0.0001916,
      "inclination_deg": 87.8954,
      "raan_deg": 270.4078,
      "arg_perigee_deg": 93.9297,
      "mean_anomaly_deg": 266.2052,
      "mean_motion_rev_day": 13.15548425
    },
    {
      "epoch": "2026-04-22T16:54:45.616896Z",
      "apogee_km": 1203.2271497845004,
      "perigee_km": 1200.3179804934007,
      "latitude_deg": 2.9014997089705594e-05,
      "longitude_deg": 165.7880772080873,
      "height_km": 1204.7607062693899,
      "semi_major_axis_km": 7579.909565138951,
      "eccentricity": 0.0001919,
      "inclination_deg": 87.8957,
      "raan_deg": 270.2406,
      "arg_perigee_deg": 93.7848,
      "mean_anomaly_deg": 266.3502,
      "mean_motion_rev_day": 13.15548082
    },
    {
      "epoch": "2026-04-22T22:23:19.674240Z",
      "apogee_km": 1203.2228488534165,
      "perigee_km": 1200.3212596674448,
      "latitude_deg": -1.4065367879131155e-05,
      "longitude_deg": 83.37587293257612,
      "height_km": 1204.7599389367892,
      "semi_major_axis_km": 7579.90905426043,
      "eccentricity": 0.0001914,
      "inclination_deg": 87.8958,
      "raan_deg": 270.1952,
      "arg_perigee_deg": 93.7839,
      "mean_anomaly_deg": 266.351,
      "mean_motion_rev_day": 13.15548215
    },
    {
      "epoch": "2026-04-24T20:01:23.533824Z",
      "apogee_km": 1203.2308283232787,
      "perigee_km": 1200.3140791654778,
      "latitude_deg": -3.230959376198646e-05,
      "longitude_deg": 116.60604953697121,
      "height_km": 1204.7568813454986,
      "semi_major_axis_km": 7579.909453744378,
      "eccentricity": 0.0001924,
      "inclination_deg": 87.8963,
      "raan_deg": 269.8156,
      "arg_perigee_deg": 93.6286,
      "mean_anomaly_deg": 266.5064,
      "mean_motion_rev_day": 13.15548111
    },
    {
      "epoch": "2026-04-25T19:45:11.113056Z",
      "apogee_km": 1203.211237637218,
      "perigee_km": 1200.3263254967533,
      "latitude_deg": -8.455283936300667e-05,
      "longitude_deg": 119.48534896093308,
      "height_km": 1204.760383907112,
      "semi_major_axis_km": 7579.905781566985,
      "eccentricity": 0.0001903,
      "inclination_deg": 87.8968,
      "raan_deg": 269.6177,
      "arg_perigee_deg": 93.9522,
      "mean_anomaly_deg": 266.1825,
      "mean_motion_rev_day": 13.15549067
    }
  ]
}